NORAD_CAT_ID,OBJECT_NAME,OBJECT_TYPE,EPOCH,MEAN_MOTION,ECCENTRICITY,INCLINATION,RA_OF_ASC_NODE,ARG_OF_PERICENTER,MEAN_ANOMALY,BSTAR,MEAN_MOTION_DOT,MEAN_MOTION_DDOT,TLE_LINE0,TLE_LINE1,TLE_LINE2,SEMIMAJOR_AXIS,PERIOD,APOGEE,PERIGEE,DECAYED
52612.0,STARLINK-4002,PAYLOAD,2022-08-09 14:00:01,15.080352599999998,0.0001634,53.2183,31.4043,68.4988,221.0099,-0.0032248,-0.00050143,0.0,0 STARLINK-4002,1 52612U 22052Q   22221.58334491 -.00050143  00000-0 -32248-2 0  9999,2 52612  53.2183  31.4043 0001634  68.4988 221.0099 15.08035260  1309,6920.340999999999,95.488,543.337,541.075,0.0
52612.0,STARLINK-4002,PAYLOAD,2022-08-09 22:00:00,15.07980601,0.0001754,53.2183,29.9112,61.28,238.8381,0.003399,0.00052953,0.0,0 STARLINK-4002,1 52612U 22052Q   22221.91667824  .00052953  00000-0  33990-2 0  9999,2 52612  53.2183  29.9112 0001754  61.2800 238.8381 15.07980601  1302,6920.5080000000025,95.492,543.587,541.16,0.0
52612.0,STARLINK-4002,PAYLOAD,2022-08-10 04:00:00,15.08019864,0.000167,53.2183,28.7888,64.8765,153.1739,-0.0012982999999999,-0.00020434,0.0,0 STARLINK-4002,1 52612U 22052Q   22222.16667824 -.00020434  00000-0 -12983-2 0  9997,2 52612  53.2183  28.7888 0001670  64.8765 153.1739 15.08019864 13837,6920.388000000001,95.489,543.409,541.0980000000002,0.0
52612.0,STARLINK-4002,PAYLOAD,2022-08-10 12:00:00,15.08014866,0.000173,53.2185,27.2939,70.4552,158.2136,0.0003573,5.278e-05,0.0,0 STARLINK-4002,1 52612U 22052Q   22222.50001157  .00005278  00000-0  35730-3 0  9999,2 52612  53.2185  27.2939 0001730  70.4552 158.2136 15.08014866 13883,6920.404,95.49,543.466,541.071,0.0
52612.0,STARLINK-4002,PAYLOAD,2022-08-10 14:00:01,15.08026342,0.0001743,53.2185,26.9207,68.146,253.1709,-0.0012561,-0.00019784,0.0,0 STARLINK-4002,1 52612U 22052Q   22222.58334491 -.00019784  00000-0 -12561-2 0  9992,2 52612  53.2185  26.9207 0001743  68.1460 253.1709 15.08026342  1300,6920.369000000002,95.489,543.44,541.0269999999998,0.0
52612.0,STARLINK-4002,PAYLOAD,2022-08-10 22:00:00,15.07997856,0.0001817,53.2186,25.4274,60.9698,270.9609,0.0031257,0.00048666,0.0,0 STARLINK-4002,1 52612U 22052Q   22222.91667824  .00048666  00000-0  31257-2 0  9990,2 52612  53.2186  25.4274 0001817  60.9698 270.9609 15.07997856  1306,6920.456,95.491,543.578,541.063,0.0
52612.0,STARLINK-4002,PAYLOAD,2022-08-11 14:00:01,15.08060059,0.0001729,53.2192,22.4372,66.1891,286.9559,-0.0039562,-0.00061396,0.0,0 STARLINK-4002,1 52612U 22052Q   22223.58334491 -.00061396  00000-0 -39562-2 0  9999,2 52612  53.2192  22.4372 0001729  66.1891 286.9559 15.08060059  1302,6920.265,95.487,543.327,540.934,0.0
52612.0,STARLINK-4002,PAYLOAD,2022-08-11 20:00:01,15.08001235,0.0001803,53.2193,21.3174,60.1464,210.9846,0.0017364,0.00026827,0.0,0 STARLINK-4002,1 52612U 22052Q   22223.83334491  .00026827  00000-0  17364-2 0  9991,2 52612  53.2193  21.3174 0001803  60.1464 210.9846 15.08001235 14091,6920.445,95.491,543.558,541.063,0.0
52612.0,STARLINK-4002,PAYLOAD,2022-08-12 14:00:01,15.08055677,0.0001629,53.2194,17.955,64.9464,320.0474,-0.0023425,-0.00036591,0.0,0 STARLINK-4002,1 52612U 22052Q   22224.58334491 -.00036591  00000-0 -23425-2 0  9990,2 52612  53.2194  17.9550 0001629  64.9464 320.0474 15.08055677  1308,6920.279,95.487,543.271,541.016,0.0
52612.0,STARLINK-4002,PAYLOAD,2022-08-12 20:00:01,15.08007955,0.0001785,53.2187,16.8371,61.1567,241.8931,-0.0071511,-0.00109845,0.0,0 STARLINK-4002,1 52612U 22052Q   22224.83335648 -.00109845  00000-0 -71511-2 0  9995,2 52612  53.2187  16.8371 0001785  61.1567 241.8931 15.08007955 14246,6920.425,95.49,543.525,541.054,0.0
52612.0,STARLINK-4002,PAYLOAD,2022-08-12 22:00:01,15.07724319,0.0001801,53.2183,16.4638,71.2835,324.4772,0.036724,0.00602754,0.0,0 STARLINK-4002,1 52612U 22052Q   22224.91668981  .00602754  00000-0  36724-1 0  9994,2 52612  53.2183  16.4638 0001801  71.2835 324.4772 15.07724319  1306,6921.293000000002,95.508,544.404,541.911,0.0
52612.0,STARLINK-4002,PAYLOAD,2022-08-13 04:00:00,15.07970289,0.0001646,53.2179,15.3432,68.8252,244.6461,0.081662,0.013846,0.0,0 STARLINK-4002,1 52612U 22052Q   22225.16667824  .01384600  00000-0  81662-1 0  9996,2 52612  53.2179  15.3432 0001646  68.8252 244.6461 15.07970289 14292,6920.54,95.493,543.544,541.266,0.0
52612.0,STARLINK-4002,PAYLOAD,2022-08-13 14:00:01,15.08835205,0.0001803,53.2176,13.475,50.9651,6.5265,8.918700000000001e-05,1.131e-05,0.0,0 STARLINK-4002,1 52612U 22052Q   22225.58334491  .00001131  00000-0  89187-4 0  9990,2 52612  53.2176  13.4750 0001803  50.9651   6.5265 15.08835205  1305,6917.895,95.438,541.007,538.513,0.0
52612.0,STARLINK-4002,PAYLOAD,2022-08-13 22:00:00,15.08836266,0.0001714,53.2172,11.9792,47.0231,22.059,0.00013323,1.833e-05,0.0,0 STARLINK-4002,1 52612U 22052Q   22225.91667824  .00001833  00000-0  13323-3 0  9993,2 52612  53.2172  11.9792 0001714  47.0231  22.0590 15.08836266  1304,6917.892,95.438,540.943,538.571,0.0
52612.0,STARLINK-4002,PAYLOAD,2022-08-14 12:00:00,15.08866475,0.0001635,53.2202,9.3547,68.053,291.2494,-0.00082316,-0.00013374,0.0,0 STARLINK-4002,1 52612U 22052Q   22226.50001157 -.00013374  00000-0 -82316-3 0  9993,2 52612  53.2202   9.3547 0001635  68.0530 291.2494 15.08866475 14496,6917.799,95.436,540.7959999999998,538.533,0.0
52612.0,STARLINK-4002,PAYLOAD,2022-08-14 14:00:01,15.08867104,0.0001669,53.2199,8.9812,65.6964,26.5073,-0.0017832,-0.00028577,0.0,0 STARLINK-4002,1 52612U 22052Q   22226.58334491 -.00028577  00000-0 -17832-2 0  9992,2 52612  53.2199   8.9812 0001669  65.6964  26.5073 15.08867104  1300,6917.7980000000025,95.436,540.817,538.508,0.0
52612.0,STARLINK-4002,PAYLOAD,2022-08-14 22:00:00,15.08849767,0.0001641,53.2195,7.4855,59.0368,44.7844,-0.00081531,-0.00013244,0.0,0 STARLINK-4002,1 52612U 22052Q   22226.91667824 -.00013244  00000-0 -81531-3 0  9991,2 52612  53.2195   7.4855 0001641  59.0368  44.7844 15.08849767  1305,6917.851,95.437,540.851,538.58,0.0
52612.0,STARLINK-4002,PAYLOAD,2022-08-15 14:00:01,15.08851001,0.0001564,53.2195,4.4927,64.6314,62.3718,-0.0015860999999999,-0.0002545,0.0,0 STARLINK-4002,1 52612U 22052Q   22227.58334491 -.00025450  00000-0 -15861-2 0  9990,2 52612  53.2195   4.4927 0001564  64.6314  62.3718 15.08851001  1309,6917.847,95.437,540.794,538.63,0.0
52612.0,STARLINK-4002,PAYLOAD,2022-08-15 20:00:01,15.08825461,0.0001584,53.2194,3.3713,58.9208,346.7899,0.0028324,0.0004506,0.0,0 STARLINK-4002,1 52612U 22052Q   22227.83334491  .00045060  00000-0  28324-2 0  9993,2 52612  53.2194   3.3713 0001584  58.9208 346.7899 15.08825461 14695,6917.925,95.438,540.886,538.694,0.0
52612.0,STARLINK-4002,PAYLOAD,2022-08-15 22:00:00,15.08850383,0.0001574,53.2191,2.9969,58.1319,80.4708,-0.00010692,-1.99e-05,0.0,0 STARLINK-4002,1 52612U 22052Q   22227.91667824 -.00001990  00000-0 -10692-3 0  9997,2 52612  53.2191   2.9969 0001574  58.1319  80.4708 15.08850383  1300,6917.849,95.437,540.803,538.625,0.0
52612.0,STARLINK-4002,PAYLOAD,2022-08-16 04:00:01,15.08838827,0.0001404,53.2193,1.8733,64.9483,352.4307,-0.00073244,-0.00011925,0.0,0 STARLINK-4002,1 52612U 22052Q   22228.16668981 -.00011925  00000-0 -73244-3 0  9991,2 52612  53.2193   1.8733 0001404  64.9483 352.4307 15.08838827 14746,6917.884,95.438,540.72,538.778,0.0
52612.0,STARLINK-4002,PAYLOAD,2022-08-16 14:00:01,15.0884174,0.000148,53.2191,0.0041,61.3454,100.4525,-0.0012420999999999,-0.00020002,0.0,0 STARLINK-4002,1 52612U 22052Q   22228.58334491 -.00020002  00000-0 -12421-2 0  9998,2 52612  53.2191   0.0041 0001480  61.3454 100.4525 15.08841740  1309,6917.875,95.437,540.764,538.716,0.0
52612.0,STARLINK-4002,PAYLOAD,2022-08-16 22:00:00,15.08841547,0.0001512,53.2189,358.5081,55.7994,117.586,0.0003696,5.599e-05,0.0,0 STARLINK-4002,1 52612U 22052Q   22228.91667824  .00005599  00000-0  36960-3 0  9991,2 52612  53.2189 358.5081 0001512  55.7994 117.5860 15.08841547  1309,6917.876,95.437,540.7869999999998,538.695,0.0
52612.0,STARLINK-4002,PAYLOAD,2022-08-17 04:00:00,15.08826512,0.000138,53.2191,357.3845,62.604,29.4858,0.001978,0.0003131999999999,0.0,0 STARLINK-4002,1 52612U 22052Q   22229.16667824  .00031320  00000-0  19780-2 0  9990,2 52612  53.2191 357.3845 0001380  62.6040  29.4858 15.08826512 14890,6917.922,95.438,540.741,538.832,0.0
52612.0,STARLINK-4002,PAYLOAD,2022-08-17 16:00:00,15.0885235,0.0001529,53.2191,355.1416,55.8971,233.5956,-0.0021011,-0.00033583,0.0,0 STARLINK-4002,1 52612U 22052Q   22229.66667824 -.00033583  00000-0 -21011-2 0  9990,2 52612  53.2191 355.1416 0001529  55.8971 233.5956 15.08852350  1300,6917.843000000003,95.437,540.765,538.65,0.0
52612.0,STARLINK-4002,PAYLOAD,2022-08-18 06:00:02,15.08842302,0.0001403,53.219,352.5211,60.59,159.2723,-8.1235e-05,-1.581e-05,0.0,0 STARLINK-4002,1 52612U 22052Q   22230.25002315 -.00001581  00000-0 -81235-4 0  9994,2 52612  53.2190 352.5211 0001403  60.5900 159.2723 15.08842302 15058,6917.873000000001,95.437,540.7090000000002,538.768,0.0
52612.0,STARLINK-4002,PAYLOAD,2022-08-18 14:00:01,15.08838347,0.0001598,53.2192,351.0263,56.7596,174.6367,-0.00070536,-0.00011496,0.0,0 STARLINK-4002,1 52612U 22052Q   22230.58334491 -.00011496  00000-0 -70536-3 0  9990,2 52612  53.2192 351.0263 0001598  56.7596 174.6367 15.08838347  1306,6917.885,95.438,540.856,538.645,0.0
52612.0,STARLINK-4002,PAYLOAD,2022-08-18 22:00:00,15.08846738,0.0001546,53.2192,349.53,51.642,191.3397,-0.0024185,-0.0003858,0.0,0 STARLINK-4002,1 52612U 22052Q   22230.91667824 -.00038580  00000-0 -24185-2 0  9997,2 52612  53.2192 349.5300 0001546  51.6420 191.3397 15.08846738  1305,6917.86,95.437,540.794,538.655,0.0
52612.0,STARLINK-4002,PAYLOAD,2022-08-19 12:00:00,15.088515,0.0001521999999999,53.2196,346.9111,55.8972,117.3534,-0.0015879,-0.00025478,0.0,0 STARLINK-4002,1 52612U 22052Q   22231.50001157 -.00025478  00000-0 -15879-2 0  9996,2 52612  53.2196 346.9111 0001522  55.8972 117.3534 15.08851500 15244,6917.845,95.437,540.763,538.6569999999998,0.0
